{"_default": { "867": {"norad_id": "60206", "name": "R5-S4", "tle1": "1 60206U 24125D   26162.82852486  .00014807  00000-0  33706-3 0  9990", "tle2": "2 60206  97.2407  14.0834 0014748 246.9823 112.9870 15.42944039108304", "object_type": "PAYLOAD", "criticality_score": 7.0, "last_updated": "2026-06-12T12:52:23.908888+00:00", "maneuver_count": 0, "owner": "N/A"}, "868": {"norad_id": "98886", "name": "R5-S4", "tle1": "1 60206U 24125D   26162.82852486  .00014807  00000-0  33706-3 0  9990", "tle2": "2 60206  97.2407  14.0834 0014748 246.9823 112.9870 15.42944039108304", "object_type": "PAYLOAD", "criticality_score": 7.0, "last_updated": "2026-06-12T12:52:23.908888+00:00", "maneuver_count": 0, "owner": "N/A"}, "869": {"norad_id": "98888", "name": "OBJECT A", "tle1": "1 60203U 24125A   26162.55304839  .00053374  00000-0  52759-3 0  9992", "tle2": "2 60203  97.2287  20.8629 0008947 215.7842 144.2820 15.65677758108751", "object_type": "PAYLOAD", "criticality_score": 7.0, "last_updated": "2026-06-12T12:52:23.908888+00:00", "maneuver_count": 0, "owner": "N/A"}, "870": {"norad_id": "60209", "name": "OBJECT G", "tle1": "1 60209U 24125G   26162.60005230  .00050616  00000-0  56470-3 0  9997", "tle2": "2 60209  97.2312  19.9579 0009060 224.7831 135.2697 15.62604296108693", "object_type": "PAYLOAD", "criticality_score": 7.0, "last_updated": "2026-06-12T12:52:23.908888+00:00", "maneuver_count": 0, "owner": "N/A"}, "871": {"norad_id": "60246", "name": "CATSAT", "tle1": "1 60246U 24125J   26162.55312640  .00057615  00000-0  75817-3 0  9990", "tle2": "2 60246  97.2095  14.9841 0022213 199.2504 160.7915 15.57988127106514", "object_type": "PAYLOAD", "criticality_score": 7.0, "last_updated": "2026-06-12T12:52:23.908888+00:00", "maneuver_count": 0, "owner": "N/A"}, "872": {"norad_id": "38758", "name": "NOSS 3-6 (A)", "tle1": "1 38758U 12048A   26162.04965573 0.00000000  00000-0  00000-0 0    05", "tle2": "2 38758  63.4236 224.6069 0316039 357.9817   2.0183 13.41001382    05", "object_type": "PAYLOAD", "criticality_score": 9.0, "last_updated": "2026-06-12T12:52:23.908888+00:00", "maneuver_count": 0, "owner": "N/A"}, "873": {"norad_id": "43065", "name": "GCOM-C", "tle1": "1 43065U 17082A   26162.11904001  .00000093  00000-0  56010-4 0  9997", "tle2": "2 43065  98.6275 235.8419 0001226  95.7758 264.3562 14.27290354441072", "object_type": "PAYLOAD", "criticality_score": 9.0, "last_updated": "2026-06-12T12:52:23.908888+00:00", "maneuver_count": 0, "owner": "N/A"}, "874": {"norad_id": "98879", "name": "OBJECT G", "tle1": "1 60241U 24128G   26162.74434588  .00003597  00000-0  24607-3 0  9996", "tle2": "2 60241  61.9899 233.4777 0040769 133.1339 227.3176 15.07448413105493", "object_type": "PAYLOAD", "criticality_score": 7.0, "last_updated": "2026-06-12T12:52:23.908888+00:00", "maneuver_count": 0, "owner": "N/A"}, "875": {"norad_id": "60237", "name": "OBJECT C", "tle1": "1 60237U 24128C   26162.77778947  .00003149  00000-0  22206-3 0  9990", "tle2": "2 60237  61.9897 235.2445 0041358 133.4824 226.9720 15.06604687105457", "object_type": "PAYLOAD", "criticality_score": 7.0, "last_updated": "2026-06-12T12:52:23.908888+00:00", "maneuver_count": 0, "owner": "N/A"}, "876": {"norad_id": "60238", "name": "ISTSAT-1", "tle1": "1 60238U 24128D   26162.95949887  .00005022  00000-0  30235-3 0  9997", "tle2": "2 60238  61.9874 224.6161 0038741 130.0714 230.3790 15.11569920105679", "object_type": "PAYLOAD", "criticality_score": 7.0, "last_updated": "2026-06-12T12:52:23.908888+00:00", "maneuver_count": 0, "owner": "N/A"}, "877": {"norad_id": "98878", "name": "3CAT-4", "tle1": "1 60236U 24128B   26162.84332454  .00001504  00000-0  12731-3 0  9991", "tle2": "2 60236  61.9914 244.3185 0043691 136.4332 224.0224 15.02197271105301", "object_type": "PAYLOAD", "criticality_score": 7.0, "last_updated": "2026-06-12T12:52:23.908888+00:00", "maneuver_count": 0, "owner": "N/A"}, "878": {"norad_id": "98875", "name": "OBJECT A", "tle1": "1 60235U 24128A   26162.84533623  .00002051  00000-0  17132-3 0  9999", "tle2": "2 60235  61.9941 249.8231 0051004 134.6430 225.8836 15.01128817105204", "object_type": "PAYLOAD", "criticality_score": 7.0, "last_updated": "2026-06-12T12:52:23.908888+00:00", "maneuver_count": 0, "owner": "N/A"}, "879": {"norad_id": "60243", "name": "ROBUSTA-3A", "tle1": "1 60243U 24128J   26162.51224362  .00006273  00000-0  37269-3 0  9992", "tle2": "2 60243  61.9859 228.3117 0041955 127.1025 233.3917 15.11611105105568", "object_type": "PAYLOAD", "criticality_score": 7.0, "last_updated": "2026-06-12T12:52:23.908888+00:00", "maneuver_count": 0, "owner": "N/A"}, "880": {"norad_id": "60242", "name": "OBJECT H", "tle1": "1 60242U 24128H   26162.55059273  .00006356  00000-0  36934-3 0  9992", "tle2": "2 60242  61.9783 225.7373 0040666 129.3155 231.1557 15.12441491105605", "object_type": "PAYLOAD", "criticality_score": 7.0, "last_updated": "2026-06-12T12:52:23.908888+00:00", "maneuver_count": 0, "owner": "N/A"}, "881": {"norad_id": "60240", "name": "OOV-CUBE", "tle1": "1 60240U 24128F   26162.59923854  .00001977  00000-0  15980-3 0  9991", "tle2": "2 60240  61.9950 245.0577 0045327 132.4986 227.9949 15.02751187105272", "object_type": "PAYLOAD", "criticality_score": 7.0, "last_updated": "2026-06-12T12:52:23.908888+00:00", "maneuver_count": 0, "owner": "N/A"}, "882": {"norad_id": "60239", "name": "ARIANE 6 R/B", "tle1": "1 60239U 24128E   26162.62011394  .00000927  00000-0  88485-4 0  9995", "tle2": "2 60239  62.0117 250.8164 0044149 135.4521 225.0132 15.00404793105192", "object_type": "ROCKET_BODY", "criticality_score": 3.0, "last_updated": "2026-06-12T12:52:23.908888+00:00", "maneuver_count": 0, "owner": "N/A"}, "883": {"norad_id": "56961", "name": "ICEYE-X26", "tle1": "1 56961U 23084AF  26151.53340426  .07996038  26164-5  98774-3 0  9990", "tle2": "2 56961  97.5464 315.9673 0014332 270.4834  89.4821 16.35905726166626", "object_type": "PAYLOAD", "criticality_score": 7.0, "last_updated": "2026-06-12T12:52:23.908888+00:00", "maneuver_count": 0, "owner": "N/A"}, "884": {"norad_id": "60082", "name": "KINEIS-1D", "tle1": "1 60082U 24114D   26162.96019095  .00000536  00000-0  84781-4 0  9990", "tle2": "2 60082  97.9885 183.1519 0001502 146.6142 213.5163 14.76250304106352", "object_type": "PAYLOAD", "criticality_score": 7.0, "last_updated": "2026-06-12T12:52:23.908888+00:00", "maneuver_count": 0, "owner": "N/A"}, "885": {"norad_id": "36798", "name": "ALSAT 2A", "tle1": "1 36798U 10035D   26162.99432906  .00000877  00000-0  13916-3 0  9996", "tle2": "2 36798  97.7628 165.7802 0001144  88.6665 271.4676 14.74475374852994", "object_type": "PAYLOAD", "criticality_score": 9.0, "last_updated": "2026-06-12T12:52:23.908888+00:00", "maneuver_count": 0, "owner": "N/A"}, "886": {"norad_id": "60083", "name": "KINEIS-1E", "tle1": "1 60083U 24114E   26162.96777674  .00000661  00000-0  92822-4 0  9999", "tle2": "2 60083  97.8945 186.4646 0001896 190.4136 169.7037 14.80634215106615", "object_type": "PAYLOAD", "criticality_score": 7.0, "last_updated": "2026-06-12T12:52:23.908888+00:00", "maneuver_count": 0, "owner": "N/A"}, "887": {"norad_id": "60079", "name": "KINEIS-1B", "tle1": "1 60079U 24114A   26162.98347939  .00000741  00000-0  10338-3 0  9993", "tle2": "2 60079  97.9825 187.1947 0003941 105.7139 254.4508 14.80616599106637", "object_type": "PAYLOAD", "criticality_score": 7.0, "last_updated": "2026-06-12T12:52:23.908888+00:00", "maneuver_count": 0, "owner": "N/A"}, "888": {"norad_id": "49070", "name": "PNEO4", "tle1": "1 49070U 21073E   26162.95185654  .00000528  00000-0  73688-4 0  9994", "tle2": "2 49070  97.8934 237.7892 0001363  85.2363 274.9005 14.81676678260593", "object_type": "PAYLOAD", "criticality_score": 7.0, "last_updated": "2026-06-12T12:52:23.908888+00:00", "maneuver_count": 0, "owner": "N/A"}, "889": {"norad_id": "60081", "name": "KINEIS-1C", "tle1": "1 60081U 24114C   26162.94958128  .00000702  00000-0  98309-4 0  9992", "tle2": "2 60081  97.9844 187.0083 0001515 130.3481 229.7864 14.80618963106604", "object_type": "PAYLOAD", "criticality_score": 7.0, "last_updated": "2026-06-12T12:52:23.908888+00:00", "maneuver_count": 0, "owner": "N/A"}, "890": {"norad_id": "60084", "name": "KINEIS-1A", "tle1": "1 60084U 24114F   26163.00106741  .00000670  00000-0  93944-4 0  9993", "tle2": "2 60084  97.8918 186.6024 0004982 141.7002 218.4565 14.80631009106625", "object_type": "PAYLOAD", "criticality_score": 7.0, "last_updated": "2026-06-12T12:52:23.908888+00:00", "maneuver_count": 0, "owner": "N/A"}, "891": {"norad_id": "44390", "name": "ICEYE-X4", "tle1": "1 44390U 19038D   26162.96323059  .00011397  00000-0  40437-3 0  9997", "tle2": "2 44390  97.8766 195.5680 0011892 328.2215  31.8305 15.29180142381008", "object_type": "PAYLOAD", "criticality_score": 9.0, "last_updated": "2026-06-12T12:52:23.908888+00:00", "maneuver_count": 0, "owner": "N/A"}, "892": {"norad_id": "45860", "name": "Ofeq 16", "tle1": "1 45860U 20044A   26115.04928298 0.00000000  00000-0  00000-0 0    03", "tle2": "2 45860 141.0665 259.1535 0016934 136.2528 224.4907 14.97431343    05", "object_type": "PAYLOAD", "criticality_score": 9.0, "last_updated": "2026-06-12T12:52:23.908888+00:00", "maneuver_count": 0, "owner": "N/A"}, "893": {"norad_id": "58753", "name": "EINSTEIN PROBE", "tle1": "1 58753U 24007A   26162.91752076  .00002493  00000-0  17483-3 0  9999", "tle2": "2 58753  28.9987 247.7432 0009667 157.1103 202.9928 15.01870246132774", "object_type": "PAYLOAD", "criticality_score": 7.0, "last_updated": "2026-06-12T12:52:23.908888+00:00", "maneuver_count": 0, "owner": "N/A"}, "894": {"norad_id": "41240", "name": "JASON 3", "tle1": "1 41240U 16002A   26162.95409042 -.00000052  00000-0  40086-4 0  9990", "tle2": "2 41240  66.0397 136.8370 0008567 273.0048  86.9990 12.87627961486572", "object_type": "PAYLOAD", "criticality_score": 9.0, "last_updated": "2026-06-12T12:52:23.908888+00:00", "maneuver_count": 0, "owner": "N/A"}}}